[{"OBJECT_NAME":"STARLINK-32664","OBJECT_ID":"2024-229N","EPOCH":"2026-03-09T22:00:01.999584","MEAN_MOTION":15.32430196,"ECCENTRICITY":0.00073798,"INCLINATION":43.0018,"RA_OF_ASC_NODE":269.0847,"ARG_OF_PERICENTER":279.2302,"MEAN_ANOMALY":315.7732,"EPHEMERIS_TYPE":0,"CLASSIFICATION_TYPE":"U","NORAD_CAT_ID":62204,"ELEMENT_SET_NO":999,"REV_AT_EPOCH":570,"BSTAR":0.0043606707,"MEAN_MOTION_DOT":0.00141936,"MEAN_MOTION_DDOT":0},{"OBJECT_NAME":"PEGASUS DEB","OBJECT_ID":"1994-029AER","EPOCH":"2026-02-26T06:39:21.581568","MEAN_MOTION":15.03561005,"ECCENTRICITY":0.01227406,"INCLINATION":81.7323,"RA_OF_ASC_NODE":356.2383,"ARG_OF_PERICENTER":77.7128,"MEAN_ANOMALY":283.7806,"EPHEMERIS_TYPE":0,"CLASSIFICATION_TYPE":"U","NORAD_CAT_ID":39306,"ELEMENT_SET_NO":999,"REV_AT_EPOCH":9218,"BSTAR":0.0046128236,"MEAN_MOTION_DOT":0.00074995,"MEAN_MOTION_DDOT":0}]
